IRIDIUM 7               
1 24793U 97020B   26027.13031412  .00000545  00000+0  18032-3 0  9995
2 24793  86.3925  83.0565 0002588  94.8877 265.2616 14.36151909504032
IRIDIUM 5               
1 24795U 97020D   26027.38650215  .00010288  00000+0  79392-3 0  9993
2 24795  86.3903 340.1328 0105732  52.9893 308.0954 14.97033165518971
IRIDIUM 4               
1 24796U 97020E   26027.39092391  .00000582  00000+0  18968-3 0  9998
2 24796  86.3918  79.6721 0002348  95.7156 264.4309 14.37059261504664
IRIDIUM 914             
1 24836U 97030A   26027.45932782  .00000675  00000+0  20351-3 0  9990
2 24836  86.3906  87.5871 0002407 132.6036 227.5367 14.41122911639429
IRIDIUM 16              
1 24841U 97030F   26027.27052303  .00000747  00000+0  23602-3 0  9990
2 24841  86.4038 111.1849 0004026  73.1130 287.0509 14.38946625499227
IRIDIUM 911             
1 24842U 97030G   26027.25762151  .00000962  00000+0  25349-3 0  9997
2 24842  86.4459 109.7108 0016201  73.8920 286.4066 14.47970508507507
IRIDIUM 17              
1 24870U 97034B   26027.39347765  .00000836  00000+0  26960-3 0  9997
2 24870  86.4002 140.5537 0002534  56.0176 304.1263 14.38082059495802
IRIDIUM 920             
1 24871U 97034C   26027.34641808  .00000760  00000+0  22651-3 0  9997
2 24871  86.3992 119.2841 0013425  67.3102 292.9516 14.41788051498870
